NORAD_CAT_ID,OBJECT_NAME,OBJECT_TYPE,EPOCH,MEAN_MOTION,ECCENTRICITY,INCLINATION,RA_OF_ASC_NODE,ARG_OF_PERICENTER,MEAN_ANOMALY,BSTAR,MEAN_MOTION_DOT,MEAN_MOTION_DDOT,TLE_LINE0,TLE_LINE1,TLE_LINE2,SEMIMAJOR_AXIS,PERIOD,APOGEE,PERIGEE,DECAYED
49175.0,STARLINK-3087,PAYLOAD,2022-11-01 17:44:02,14.98331406,0.0003001,69.9971,120.47,253.6577,106.4252,0.00010281,1.134e-05,0.0,0 STARLINK-3087,1 49175U 21082AX  22305.73891395  .00001134  00000-0  10281-3 0  9990,2 49175  69.9971 120.4700 0003001 253.6577 106.4252 14.98331406 63134,6950.189,96.107,574.139,569.9680000000002,0.0
49175.0,STARLINK-3087,PAYLOAD,2022-11-02 11:21:30,14.98335373,0.000297,69.9976,118.6183,253.4164,106.6669,0.00010559,1.167e-05,0.0,0 STARLINK-3087,1 49175U 21082AX  22306.47327058  .00001167  00000-0  10559-3 0  9996,2 49175  69.9976 118.6183 0002970 253.4164 106.6669 14.98335373 63240,6950.176,96.107,574.105,569.977,0.0
49175.0,STARLINK-3087,PAYLOAD,2022-11-03 11:23:30,14.98342711,0.0002935,69.9982,116.0935,252.5584,107.5254,0.0001304,1.464e-05,0.0,0 STARLINK-3087,1 49175U 21082AX  22307.47466036  .00001464  00000-0  13040-3 0  9995,2 49175  69.9982 116.0935 0002935 252.5584 107.5254 14.98342711 63391,6950.154,96.106,574.058,569.979,0.0
49175.0,STARLINK-3087,PAYLOAD,2022-11-03 21:00:19,14.98336267,0.0003111,69.9964,115.0828,256.3869,103.6944,4.4815e-05,4.42e-06,0.0,0 STARLINK-3087,1 49175U 21082AX  22307.87522391  .00000442  00000-0  44815-4 0  9996,2 49175  69.9964 115.0828 0003111 256.3869 103.6944 14.98336267 63455,6950.174,96.107,574.201,569.876,0.0
49175.0,STARLINK-3087,PAYLOAD,2022-11-04 11:25:31,14.983356,0.0003037,69.9983,113.5686,254.208,105.8744,3.473e-05,3.21e-06,0.0,0 STARLINK-3087,1 49175U 21082AX  22308.47606215  .00000321  00000-0  34730-4 0  9992,2 49175  69.9983 113.5686 0003037 254.2080 105.8744 14.98335600 63542,6950.176,96.107,574.151,569.93,0.0
49175.0,STARLINK-3087,PAYLOAD,2022-11-04 17:50:03,14.98335885,0.0003035,69.9974,112.8949,254.4592,105.6232,3.6166e-05,3.39e-06,0.0,0 STARLINK-3087,1 49175U 21082AX  22308.74310087  .00000339  00000-0  36166-4 0  9995,2 49175  69.9974 112.8949 0003035 254.4592 105.6232 14.98335885 63583,6950.175,96.107,574.149,569.93,0.0
49175.0,STARLINK-3087,PAYLOAD,2022-11-05 09:51:24,14.98333948,0.0002989,69.9971,111.2117,255.8267,104.256,5.6577e-05,5.82e-06,0.0,0 STARLINK-3087,1 49175U 21082AX  22309.41069760  .00000582  00000-0  56577-4 0  9997,2 49175  69.9971 111.2117 0002989 255.8267 104.2560 14.98333948 63689,6950.181,96.107,574.123,569.9680000000002,0.0
49175.0,STARLINK-3087,PAYLOAD,2022-11-05 17:52:04,14.98330421,0.0002846,69.9996,110.369,257.1686,102.9155,2.5315e-05,2.09e-06,0.0,0 STARLINK-3087,1 49175U 21082AX  22309.74450111  .00000209  00000-0  25315-4 0  9999,2 49175  69.9996 110.3690 0002846 257.1686 102.9155 14.98330421 63738,6950.191999999999,96.107,574.035,570.0790000000002,0.0
49175.0,STARLINK-3087,PAYLOAD,2022-11-05 22:40:29,14.98327255,0.0003096,69.9995,109.8648,257.2881,102.7932,-2.0321e-05,-3.35e-06,0.0,0 STARLINK-3087,1 49175U 21082AX  22309.94478369 -.00000335  00000-0 -20321-4 0  9990,2 49175  69.9995 109.8648 0003096 257.2881 102.7932 14.98327255 63764,6950.201,96.107,574.2180000000002,569.915,0.0
49175.0,STARLINK-3087,PAYLOAD,2022-11-06 13:05:41,14.98330247,0.00032,69.9988,108.3498,256.8488,103.2315,3.8461e-05,3.66e-06,0.0,0 STARLINK-3087,1 49175U 21082AX  22310.54561982  .00000366  00000-0  38461-4 0  9998,2 49175  69.9988 108.3498 0003200 256.8488 103.2315 14.98330247 63854,6950.191999999999,96.107,574.281,569.8330000000002,0.0
49175.0,STARLINK-3087,PAYLOAD,2022-11-06 19:30:13,14.98332254,0.0003152,69.9992,107.6767,257.2292,102.8515,5.7285e-05,5.91e-06,0.0,0 STARLINK-3087,1 49175U 21082AX  22310.81265814  .00000591  00000-0  57285-4 0  9998,2 49175  69.9992 107.6767 0003152 257.2292 102.8515 14.98332254 63895,6950.186,96.107,574.242,569.86,0.0
49175.0,STARLINK-3087,PAYLOAD,2022-11-07 03:30:54,14.98319705,0.0003538,69.9993,106.8348,257.8799,102.1963,-4.0084e-05,-5.71e-06,0.0,0 STARLINK-3087,1 49175U 21082AX  22311.14646744 -.00000571  00000-0 -40084-4 0  9999,2 49175  69.9993 106.8348 0003538 257.8799 102.1963 14.98319705 63940,6950.225,96.108,574.549,569.631,0.0
49175.0,STARLINK-3087,PAYLOAD,2022-11-07 16:19:59,14.9831858,0.0003272,69.9992,105.4885,257.7438,102.3355,1.4829e-06,-7.5e-07,0.0,0 STARLINK-3087,1 49175U 21082AX  22311.68055200 -.00000075  00000-0  14829-5 0  9996,2 49175  69.9992 105.4885 0003272 257.7438 102.3355 14.98318580 64021,6950.228,96.108,574.367,569.819,0.0
49175.0,STARLINK-3087,PAYLOAD,2022-11-08 16:21:59,14.98337733,0.0003094,69.9985,102.9632,251.5271,108.5551,9.4537e-05,1.035e-05,0.0,0 STARLINK-3087,1 49175U 21082AX  22312.68193898  .00001035  00000-0  94537-4 0  9992,2 49175  69.9985 102.9632 0003094 251.5271 108.5551 14.98337733 64177,6950.169,96.107,574.184,569.884,0.0
49175.0,STARLINK-3087,PAYLOAD,2022-11-08 19:34:15,14.98338182,0.0003195,69.9988,102.6267,255.4743,104.6062,0.00012718,1.425e-05,0.0,0 STARLINK-3087,1 49175U 21082AX  22312.81545795  .00001425  00000-0  12718-3 0  9997,2 49175  69.9988 102.6267 0003195 255.4743 104.6062 14.98338182 64195,6950.168000000002,96.106,574.253,569.812,0.0
49175.0,STARLINK-3087,PAYLOAD,2022-11-09 14:47:52,14.98326907,0.0003241,69.9983,100.6071,249.6865,110.3946,0.00013577,1.527e-05,0.0,0 STARLINK-3087,1 49175U 21082AX  22313.61658376  .00001527  00000-0  13577-3 0  9993,2 49175  69.9983 100.6071 0003241 249.6865 110.3946 14.98326907 64314,6950.2019999999975,96.107,574.32,569.815,0.0
49175.0,STARLINK-3087,PAYLOAD,2022-11-09 19:36:17,14.98322775,0.0003361,69.9998,100.1018,257.6913,102.387,-7.529e-05,-9.91e-06,0.0,0 STARLINK-3087,1 49175U 21082AX  22313.81686701 -.00000991  00000-0 -75290-4 0  9995,2 49175  69.9998 100.1018 0003361 257.6913 102.3870 14.98322775 64341,6950.215,96.107,574.4159999999998,569.744,0.0
49175.0,STARLINK-3087,PAYLOAD,2022-11-10 13:13:46,14.98326913,0.0003376,70.0001,98.2509,258.7694,101.3085,-0.00012153,-1.543e-05,0.0,0 STARLINK-3087,1 49175U 21082AX  22314.55122721 -.00001543  00000-0 -12153-3 0  9996,2 49175  70.0001  98.2509 0003376 258.7694 101.3085 14.98326913 64452,6950.2019999999975,96.107,574.414,569.721,0.0
49175.0,STARLINK-3087,PAYLOAD,2022-11-10 18:02:10,14.98330169,0.0003355,70.0004,97.7457,258.3375,101.7408,-3.2755e-05,-4.84e-06,0.0,0 STARLINK-3087,1 49175U 21082AX  22314.75150592 -.00000484  00000-0 -32755-4 0  9999,2 49175  70.0004  97.7457 0003355 258.3375 101.7408 14.98330169 64484,6950.191999999999,96.107,574.389,569.726,0.0
49175.0,STARLINK-3087,PAYLOAD,2022-11-10 19:38:18,14.98330749,0.000328,70.0004,97.5773,257.5853,102.4939,1.47e-05,8.2e-07,0.0,0 STARLINK-3087,1 49175U 21082AX  22314.81826633  .00000082  00000-0  14700-4 0  9994,2 49175  70.0004  97.5773 0003280 257.5853 102.4939 14.98330749 64494,6950.191,96.107,574.335,569.776,0.0
49175.0,STARLINK-3087,PAYLOAD,2022-11-11 13:15:46,14.98337074,0.0003342,70.0005,95.7258,258.0532,102.0253,0.00015121,1.712e-05,0.0,0 STARLINK-3087,1 49175U 21082AX  22315.55262375  .00001712  00000-0  15121-3 0  9991,2 49175  70.0005  95.7258 0003342 258.0532 102.0253 14.98337074 64608,6950.170999999999,96.107,574.359,569.7130000000002,0.0
49175.0,STARLINK-3087,PAYLOAD,2022-11-11 19:40:19,14.98332253,0.0003191999999999,70.0009,95.0524,256.6259,103.4544,0.0012191,0.00014484,0.0,0 STARLINK-3087,1 49175U 21082AX  22315.81967254  .00014484  00000-0  12191-2 0  9991,2 49175  70.0009  95.0524 0003192 256.6259 103.4544 14.98332253 64640,6950.186,96.107,574.269,569.832,0.0
49175.0,STARLINK-3087,PAYLOAD,2022-11-12 02:04:51,14.98347983,0.0003347,70.0012,94.3792,258.5907,101.4876,0.00068535,8.098e-05,0.0,0 STARLINK-3087,1 49175U 21082AX  22316.08670140  .00008098  00000-0  68535-3 0  9994,2 49175  70.0012  94.3792 0003347 258.5907 101.4876 14.98347983 64682,6950.137,96.106,574.328,569.6759999999998,0.0
49175.0,STARLINK-3087,PAYLOAD,2022-11-12 13:17:47,14.98341122,0.0003185,70.0018,93.2018,256.9819,103.0985,0.00026502,3.071e-05,0.0,0 STARLINK-3087,1 49175U 21082AX  22316.55402079  .00003071  00000-0  26502-3 0  9994,2 49175  70.0018  93.2018 0003185 256.9819 103.0985 14.98341122 64757,6950.158,96.106,574.237,569.81,0.0
49175.0,STARLINK-3087,PAYLOAD,2022-11-12 19:42:19,14.98340517,0.0003224,70.0012,92.5278,258.3341,101.7456,0.00014657,1.657e-05,0.0,0 STARLINK-3087,1 49175U 21082AX  22316.82105909  .00001657  00000-0  14657-3 0  9992,2 49175  70.0012  92.5278 0003224 258.3341 101.7456 14.98340517 64790,6950.16,96.106,574.266,569.785,0.0
49175.0,STARLINK-3087,PAYLOAD,2022-11-13 13:19:48,14.98337415,0.0003162,70.0012,90.6768,260.2056,99.8747,6.651e-05,7.01e-06,0.0,0 STARLINK-3087,1 49175U 21082AX  22317.55541807  .00000701  00000-0  66510-4 0  9999,2 49175  70.0012  90.6768 0003162 260.2056  99.8747 14.98337415 64905,6950.17,96.107,574.2330000000002,569.837,0.0
49175.0,STARLINK-3087,PAYLOAD,2022-11-13 18:08:12,14.98332144,0.0003244,69.9995,90.1714,258.9394,101.1401,1.6687e-05,1.06e-06,0.0,0 STARLINK-3087,1 49175U 21082AX  22317.75570310  .00000106  00000-0  16687-4 0  9991,2 49175  69.9995  90.1714 0003244 258.9394 101.1401 14.98332144 64939,6950.186,96.107,574.306,569.797,0.0
49175.0,STARLINK-3087,PAYLOAD,2022-11-14 11:45:41,14.98328576,0.0003344,69.9992,88.3193,259.6233,100.4549,2.2035e-05,1.7e-06,0.0,0 STARLINK-3087,1 49175U 21082AX  22318.49006259  .00000170  00000-0  22035-4 0  9994,2 49175  69.9992  88.3193 0003344 259.6233 100.4549 14.98328576 65049,6950.196999999999,96.107,574.386,569.738,0.0
49175.0,STARLINK-3087,PAYLOAD,2022-11-14 18:10:13,14.98328626,0.0003396,69.9992,87.6461,261.0411,99.0364,-2.6321e-05,-4.07e-06,0.0,0 STARLINK-3087,1 49175U 21082AX  22318.75710327 -.00000407  00000-0 -26321-4 0  9998,2 49175  69.9992  87.6461 0003396 261.0411  99.0364 14.98328626 65089,6950.196999999999,96.107,574.422,569.702,0.0
